{
  "links" : {
    "next" : "https://api.nasa.gov/neo/rest/v1/feed?start_date=2014-05-23&end_date=2014-05-23&detailed=true&api_key=t0TVs3DtDT2H8Oy2Zy8m2eVrNsAVKAexjcZXUckd",
    "prev" : "https://api.nasa.gov/neo/rest/v1/feed?start_date=2014-05-21&end_date=2014-05-21&detailed=true&api_key=t0TVs3DtDT2H8Oy2Zy8m2eVrNsAVKAexjcZXUckd",
    "self" : "https://api.nasa.gov/neo/rest/v1/feed?start_date=2014-05-22&end_date=2014-05-22&detailed=true&api_key=t0TVs3DtDT2H8Oy2Zy8m2eVrNsAVKAexjcZXUckd"
  },
  "element_count" : 6,
  "near_earth_objects" : {
    "2014-05-22" : [ {
      "links" : {
        "self" : "https://api.nasa.gov/neo/rest/v1/neo/2385605?api_key=t0TVs3DtDT2H8Oy2Zy8m2eVrNsAVKAexjcZXUckd"
      },
      "neo_reference_id" : "2385605",
      "name" : "385605 (2005 EJ225)",
      "nasa_jpl_url" : "http://ssd.jpl.nasa.gov/sbdb.cgi?sstr=2385605",
      "absolute_magnitude_h" : 19.0,
      "estimated_diameter" : {
        "kilometers" : {
          "estimated_diameter_min" : 0.4212646106,
          "estimated_diameter_max" : 0.9419763057
        },
        "meters" : {
          "estimated_diameter_min" : 421.2646105562,
          "estimated_diameter_max" : 941.9763057186
        },
        "miles" : {
          "estimated_diameter_min" : 0.2617616123,
          "estimated_diameter_max" : 0.5853167591
        },
        "feet" : {
          "estimated_diameter_min" : 1382.1017848971,
          "estimated_diameter_max" : 3090.4735428537
        }
      },
      "is_potentially_hazardous_asteroid" : true,
      "close_approach_data" : [ {
        "close_approach_date" : "2014-05-22",
        "epoch_date_close_approach" : 1400742000000,
        "relative_velocity" : {
          "kilometers_per_second" : "12.8311096854",
          "kilometers_per_hour" : "46191.9948674591",
          "miles_per_hour" : "28701.9092552831"
        },
        "miss_distance" : {
          "astronomical" : "0.2833605719",
          "lunar" : "110.2272644043",
          "kilometers" : "42390140",
          "miles" : "26340010"
        },
        "orbiting_body" : "Earth"
      } ],
      "orbital_data" : {
        "orbit_id" : "57",
        "orbit_determination_date" : "2017-04-06 09:22:09",
        "orbit_uncertainty" : "0",
        "minimum_orbit_intersection" : ".0167982",
        "jupiter_tisserand_invariant" : "3.977",
        "epoch_osculation" : "2458000.5",
        "eccentricity" : ".5729910614722409",
        "semi_major_axis" : "1.706513131532417",
        "inclination" : "8.85855479558551",
        "ascending_node_longitude" : "342.1377014046605",
        "orbital_period" : "814.2595832902822",
        "perihelion_distance" : ".7286963608793395",
        "perihelion_argument" : "290.53536201",
        "aphelion_distance" : "2.684329902185494",
        "perihelion_time" : "2457635.137556503609",
        "mean_anomaly" : "161.5338429634548",
        "mean_motion" : ".442119451078859",
        "equinox" : "J2000"
      }
    }, {
      "links" : {
        "self" : "https://api.nasa.gov/neo/rest/v1/neo/3561029?api_key=t0TVs3DtDT2H8Oy2Zy8m2eVrNsAVKAexjcZXUckd"
      },
      "neo_reference_id" : "3561029",
      "name" : "(2011 GE3)",
      "nasa_jpl_url" : "http://ssd.jpl.nasa.gov/sbdb.cgi?sstr=3561029",
      "absolute_magnitude_h" : 26.0,
      "estimated_diameter" : {
        "kilometers" : {
          "estimated_diameter_min" : 0.0167708462,
          "estimated_diameter_max" : 0.0375007522
        },
        "meters" : {
          "estimated_diameter_min" : 16.7708462163,
          "estimated_diameter_max" : 37.5007521798
        },
        "miles" : {
          "estimated_diameter_min" : 0.0104209175,
          "estimated_diameter_max" : 0.0233018799
        },
        "feet" : {
          "estimated_diameter_min" : 55.0224631002,
          "estimated_diameter_max" : 123.0339677816
        }
      },
      "is_potentially_hazardous_asteroid" : false,
      "close_approach_data" : [ {
        "close_approach_date" : "2014-05-22",
        "epoch_date_close_approach" : 1400742000000,
        "relative_velocity" : {
          "kilometers_per_second" : "12.3767862726",
          "kilometers_per_hour" : "44556.4305812585",
          "miles_per_hour" : "27685.6332131159"
        },
        "miss_distance" : {
          "astronomical" : "0.2103421947",
          "lunar" : "81.8231124878",
          "kilometers" : "31466746",
          "miles" : "19552530"
        },
        "orbiting_body" : "Earth"
      } ],
      "orbital_data" : {
        "orbit_id" : "13",
        "orbit_determination_date" : "2017-04-06 08:53:51",
        "orbit_uncertainty" : "7",
        "minimum_orbit_intersection" : ".0154834",
        "jupiter_tisserand_invariant" : "7.146",
        "epoch_osculation" : "2458000.5",
        "eccentricity" : ".2937750747056105",
        "semi_major_axis" : ".8136821297526844",
        "inclination" : "6.210220613173283",
        "ascending_node_longitude" : "13.41736020311009",
        "orbital_period" : "268.0899871735732",
        "perihelion_distance" : ".5746426012979693",
        "perihelion_argument" : "20.78834426171836",
        "aphelion_distance" : "1.052721658207399",
        "perihelion_time" : "2457959.589412913354",
        "mean_anomaly" : "54.93607391482688",
        "mean_motion" : "1.34283269507906",
        "equinox" : "J2000"
      }
    }, {
      "links" : {
        "self" : "https://api.nasa.gov/neo/rest/v1/neo/3732114?api_key=t0TVs3DtDT2H8Oy2Zy8m2eVrNsAVKAexjcZXUckd"
      },
      "neo_reference_id" : "3732114",
      "name" : "(2015 UG51)",
      "nasa_jpl_url" : "http://ssd.jpl.nasa.gov/sbdb.cgi?sstr=3732114",
      "absolute_magnitude_h" : 25.8,
      "estimated_diameter" : {
        "kilometers" : {
          "estimated_diameter_min" : 0.0183888672,
          "estimated_diameter_max" : 0.0411187571
        },
        "meters" : {
          "estimated_diameter_min" : 18.388867207,
          "estimated_diameter_max" : 41.1187571041
        },
        "miles" : {
          "estimated_diameter_min" : 0.0114263088,
          "estimated_diameter_max" : 0.0255500032
        },
        "feet" : {
          "estimated_diameter_min" : 60.3309310875,
          "estimated_diameter_max" : 134.9040630575
        }
      },
      "is_potentially_hazardous_asteroid" : false,
      "close_approach_data" : [ {
        "close_approach_date" : "2014-05-22",
        "epoch_date_close_approach" : 1400742000000,
        "relative_velocity" : {
          "kilometers_per_second" : "6.0452943603",
          "kilometers_per_hour" : "21763.0596969748",
          "miles_per_hour" : "13522.7189544897"
        },
        "miss_distance" : {
          "astronomical" : "0.1696503686",
          "lunar" : "65.9939956665",
          "kilometers" : "25379336",
          "miles" : "15769988"
        },
        "orbiting_body" : "Earth"
      } ],
      "orbital_data" : {
        "orbit_id" : "10",
        "orbit_determination_date" : "2017-04-06 08:31:10",
        "orbit_uncertainty" : "6",
        "minimum_orbit_intersection" : ".0154822",
        "jupiter_tisserand_invariant" : "5.786",
        "epoch_osculation" : "2458000.5",
        "eccentricity" : ".2395006669387062",
        "semi_major_axis" : "1.059836058438762",
        "inclination" : ".900820415160502",
        "ascending_node_longitude" : "95.21481383778308",
        "orbital_period" : "398.5258197625747",
        "perihelion_distance" : ".806004615596989",
        "perihelion_argument" : "189.7318556369445",
        "aphelion_distance" : "1.313667501280535",
        "perihelion_time" : "2458029.847596115147",
        "mean_anomaly" : "333.4894602117696",
        "mean_motion" : ".9033291750443503",
        "equinox" : "J2000"
      }
    } ]
  }
}